[{"OBJECT_NAME":"STARLINK-31748","OBJECT_ID":"2024-080M","EPOCH":"2026-03-09T22:35:20.130144","MEAN_MOTION":15.2757242,"ECCENTRICITY":0.00013055,"INCLINATION":43.0046,"RA_OF_ASC_NODE":32.8124,"ARG_OF_PERICENTER":246.2155,"MEAN_ANOMALY":113.856,"EPHEMERIS_TYPE":0,"CLASSIFICATION_TYPE":"U","NORAD_CAT_ID":59612,"ELEMENT_SET_NO":999,"REV_AT_EPOCH":10578,"BSTAR":-0.0001177294,"MEAN_MOTION_DOT":-3.5e-5,"MEAN_MOTION_DDOT":0},{"OBJECT_NAME":"FLOCK 4G-22","OBJECT_ID":"2025-009AN","EPOCH":"2026-03-09T22:51:40.689792","MEAN_MOTION":15.2720903,"ECCENTRICITY":8.959e-5,"INCLINATION":97.4046,"RA_OF_ASC_NODE":151.5884,"ARG_OF_PERICENTER":284.1963,"MEAN_ANOMALY":75.9176,"EPHEMERIS_TYPE":0,"CLASSIFICATION_TYPE":"U","NORAD_CAT_ID":62645,"ELEMENT_SET_NO":999,"REV_AT_EPOCH":6376,"BSTAR":0.00049035383,"MEAN_MOTION_DOT":0.00013013,"MEAN_MOTION_DDOT":0}]
